QIANFAN-57              
1 62787U 25016C   25363.19341189  .00000206  00000+0  30121-3 0  9996
2 62787  88.9788 101.5037 0002569 109.1139 251.0291 13.50982022 49424
QIANFAN-58              
1 62788U 25016D   25363.23863161  .00000200  00000+0  29140-3 0  9994
2 62788  88.9758 101.3255 0012099 296.4327  63.5582 13.50983828 49479
QIANFAN-59              
1 62789U 25016E   25363.26328119  .00000044  00000+0  50417-4 0  9995
2 62789  88.9782 101.4006 0012476 300.7549  59.2373 13.50979735 49478
QIANFAN-60              
1 62790U 25016F   25363.22221736  .00000193  00000+0  28115-3 0  9994
2 62790  88.9762 101.3732 0014000 296.6096  63.3621 13.50989188 49451
QIANFAN-61              
1 62791U 25016G   25363.25504840  .00000187  00000+0  27124-3 0  9990
2 62791  88.9830 101.5439 0012951 295.9962  63.9854 13.50985641 49477
QIANFAN-62              
1 62792U 25016H   25363.18513802  .00000202  00000+0  29451-3 0  9994
2 62792  88.9776 101.4107 0014332 296.5180  63.4501 13.50982264 49452
QIANFAN-63              
1 62793U 25016J   25363.28384316  .00000188  00000+0  27315-3 0  9992
2 62793  88.9783 101.3530 0014401 302.2157  57.7597 13.50980604 49509
QIANFAN-64              
1 62794U 25016K   25363.17687453  .00000201  00000+0  29258-3 0  9993
2 62794  88.9770 101.3360 0012314 294.7443  65.2426 13.50984014 49482
